{
  "type": "FeatureCollection",
  "features": [
    {
      "type": "Feature",
      "properties": {
        "norad_id": 38474,
        "name": "IRIDIUM 33 DEB",
        "group": "iridium-33-debris",
        "lat": 55.46494717161757,
        "lon": 13.581758629341952,
        "alt_km": 699.0840475497789,
        "timestamp": "2025-12-16T21:38:57.560610+00:00",
        "meta_object_name": "IRIDIUM 33 DEB",
        "meta_object_id": "1997-051AAB",
        "meta_epoch": "2025-12-13T08:58:04.646496",
        "meta_mean_motion": 14.5069505,
        "meta_eccentricity": 0.00282612,
        "meta_inclination": 86.3454,
        "meta_ra_of_asc_node": 9.789,
        "meta_arg_of_pericenter": 86.1077,
        "meta_mean_anomaly": 274.3358,
        "meta_ephemeris_type": 0,
        "meta_classification_type": "U",
        "meta_norad_cat_id": 38474,
        "meta_element_set_no": 999,
        "meta_rev_at_epoch": 65327,
        "meta_bstar": 0.00084561127,
        "meta_mean_motion_dot": 3.359e-05,
        "meta_mean_motion_ddot": 0,
        "tle_line1": "1 38474U 97051AAB 25347.37366489  .00003359  00000+0  84561-3 0  9991",
        "tle_line2": "2 38474  86.3454   9.7890 0028261  86.1077 274.3358 14.50695050653279"
      },
      "geometry": {
        "type": "Point",
        "coordinates": [
          13.581758629341952,
          55.46494717161757
        ]
      }
    },
    {
      "type": "Feature",
      "properties": {
        "norad_id": 39777,
        "name": "IRIDIUM 33 DEB",
        "group": "iridium-33-debris",
        "lat": -9.111987853954172,
        "lon": -6.3270816711820315,
        "alt_km": 667.814000055726,
        "timestamp": "2025-12-16T21:38:57.560620+00:00",
        "meta_object_name": "IRIDIUM 33 DEB",
        "meta_object_id": "1997-051AAJ",
        "meta_epoch": "2025-12-16T05:56:45.354624",
        "meta_mean_motion": 14.5651034,
        "meta_eccentricity": 0.00600343,
        "meta_inclination": 85.963,
        "meta_ra_of_asc_node": 173.3415,
        "meta_arg_of_pericenter": 174.7294,
        "meta_mean_anomaly": 185.456,
        "meta_ephemeris_type": 0,
        "meta_classification_type": "U",
        "meta_norad_cat_id": 39777,
        "meta_element_set_no": 999,
        "meta_rev_at_epoch": 60236,
        "meta_bstar": 0.0018808359,
        "meta_mean_motion_dot": 8.597e-05,
        "meta_mean_motion_ddot": 0,
        "tle_line1": "1 39777U 97051AAJ 25350.24774716  .00008597  00000+0  18808-2 0  9993",
        "tle_line2": "2 39777  85.9630 173.3415 0060034 174.7294 185.4560 14.56510340602362"
      },
      "geometry": {
        "type": "Point",
        "coordinates": [
          -6.3270816711820315,
          -9.111987853954172
        ]
      }
    },
    {
      "type": "Feature",
      "properties": {
        "norad_id": 39778,
        "name": "IRIDIUM 33 DEB",
        "group": "iridium-33-debris",
        "lat": -9.40762749619719,
        "lon": 40.81787310348583,
        "alt_km": 711.570429236559,
        "timestamp": "2025-12-16T21:38:57.560630+00:00",
        "meta_object_name": "IRIDIUM 33 DEB",
        "meta_object_id": "1997-051AAK",
        "meta_epoch": "2025-12-15T02:45:26.160768",
        "meta_mean_motion": 14.54282095,
        "meta_eccentricity": 0.00077486,
        "meta_inclination": 86.3779,
        "meta_ra_of_asc_node": 42.1948,
        "meta_arg_of_pericenter": 34.959,
        "meta_mean_anomaly": 325.2125,
        "meta_ephemeris_type": 0,
        "meta_classification_type": "U",
        "meta_norad_cat_id": 39778,
        "meta_element_set_no": 999,
        "meta_rev_at_epoch": 60727,
        "meta_bstar": 0.00058175197,
        "meta_mean_motion_dot": 2.487e-05,
        "meta_mean_motion_ddot": 0,
        "tle_line1": "1 39778U 97051AAK 25349.11488612  .00002487  00000+0  58175-3 0  9999",
        "tle_line2": "2 39778  86.3779  42.1948 0007748  34.9590 325.2125 14.54282095607272"
      },
      "geometry": {
        "type": "Point",
        "coordinates": [
          40.81787310348583,
          -9.40762749619719
        ]
      }
    },
    {
      "type": "Feature",
      "properties": {
        "norad_id": 39781,
        "name": "IRIDIUM 33 DEB",
        "group": "iridium-33-debris",
        "lat": -34.11637973968091,
        "lon": -106.20033470774827,
        "alt_km": 775.669474630824,
        "timestamp": "2025-12-16T21:38:57.560640+00:00",
        "meta_object_name": "IRIDIUM 33 DEB",
        "meta_object_id": "1997-051AAN",
        "meta_epoch": "2025-12-15T00:15:44.903232",
        "meta_mean_motion": 14.2070789,
        "meta_eccentricity": 0.01756389,
        "meta_inclination": 86.371,
        "meta_ra_of_asc_node": 257.043,
        "meta_arg_of_pericenter": 266.0338,
        "meta_mean_anomaly": 111.7662,
        "meta_ephemeris_type": 0,
        "meta_classification_type": "U",
        "meta_norad_cat_id": 39781,
        "meta_element_set_no": 999,
        "meta_rev_at_epoch": 8139,
        "meta_bstar": 0.0031777078,
        "meta_mean_motion_dot": 8.021e-05,
        "meta_mean_motion_ddot": 0,
        "tle_line1": "1 39781U 97051AAN 25349.01093638  .00008021  00000+0  31777-2 0  9990",
        "tle_line2": "2 39781  86.3710 257.0430 0175638 266.0338 111.7662 14.20707890 81397"
      },
      "geometry": {
        "type": "Point",
        "coordinates": [
          -106.20033470774827,
          -34.11637973968091
        ]
      }
    },
    {
      "type": "Feature",
      "properties": {
        "norad_id": 40996,
        "name": "IRIDIUM 33 DEB",
        "group": "iridium-33-debris",
        "lat": -6.12456965292447,
        "lon": 179.85728941780098,
        "alt_km": 587.3030152383326,
        "timestamp": "2025-12-16T21:38:57.560650+00:00",
        "meta_object_name": "IRIDIUM 33 DEB",
        "meta_object_id": "1997-051ABJ",
        "meta_epoch": "2025-12-16T00:05:33.352800",
        "meta_mean_motion": 14.96464773,
        "meta_eccentricity": 0.00116594,
        "meta_inclination": 86.3516,
        "meta_ra_of_asc_node": 359.8847,
        "meta_arg_of_pericenter": 54.6078,
        "meta_mean_anomaly": 335.6485,
        "meta_ephemeris_type": 0,
        "meta_classification_type": "U",
        "meta_norad_cat_id": 40996,
        "meta_element_set_no": 999,
        "meta_rev_at_epoch": 62537,
        "meta_bstar": 0.0019705455,
        "meta_mean_motion_dot": 0.0002246,
        "meta_mean_motion_ddot": 0,
        "tle_line1": "1 40996U 97051ABJ 25350.00385825  .00022460  00000+0  19705-2 0  9993",
        "tle_line2": "2 40996  86.3516 359.8847 0011659  54.6078 335.6485 14.96464773625373"
      },
      "geometry": {
        "type": "Point",
        "coordinates": [
          179.85728941780098,
          -6.12456965292447
        ]
      }
    },
    {
      "type": "Feature",
      "properties": {
        "norad_id": 40998,
        "name": "IRIDIUM 33 DEB",
        "group": "iridium-33-debris",
        "lat": -53.10540841709303,
        "lon": -123.28830670306252,
        "alt_km": 755.0824235133705,
        "timestamp": "2025-12-16T21:38:57.560661+00:00",
        "meta_object_name": "IRIDIUM 33 DEB",
        "meta_object_id": "1997-051ABL",
        "meta_epoch": "2025-12-14T22:36:58.178592",
        "meta_mean_motion": 14.45106117,
        "meta_eccentricity": 0.00094247,
        "meta_inclination": 86.383,
        "meta_ra_of_asc_node": 52.7149,
        "meta_arg_of_pericenter": 78.6428,
        "meta_mean_anomaly": 45.8037,
        "meta_ephemeris_type": 0,
        "meta_classification_type": "U",
        "meta_norad_cat_id": 40998,
        "meta_element_set_no": 999,
        "meta_rev_at_epoch": 6713,
        "meta_bstar": 0.0004149731,
        "meta_mean_motion_dot": 1.471e-05,
        "meta_mean_motion_ddot": 0,
        "tle_line1": "1 40998U 97051ABL 25348.94234003  .00001471  00000+0  41497-3 0  9999",
        "tle_line2": "2 40998  86.3830  52.7149 0009424  78.6428  45.8037 14.45106117 67136"
      },
      "geometry": {
        "type": "Point",
        "coordinates": [
          -123.28830670306252,
          -53.10540841709303
        ]
      }
    },
    {
      "type": "Feature",
      "properties": {
        "norad_id": 46435,
        "name": "IRIDIUM 33 DEB",
        "group": "iridium-33-debris",
        "lat": -86.14281685839947,
        "lon": 117.59224814574922,
        "alt_km": 643.0381819026597,
        "timestamp": "2025-12-16T21:38:57.560671+00:00",
        "meta_object_name": "IRIDIUM 33 DEB",
        "meta_object_id": "1997-051ABN",
        "meta_epoch": "2025-12-13T20:22:29.882208",
        "meta_mean_motion": 14.32399442,
        "meta_eccentricity": 0.0208315,
        "meta_inclination": 86.2839,
        "meta_ra_of_asc_node": 193.4722,
        "meta_arg_of_pericenter": 272.7642,
        "meta_mean_anomaly": 103.0816,
        "meta_ephemeris_type": 0,
        "meta_classification_type": "U",
        "meta_norad_cat_id": 46435,
        "meta_element_set_no": 999,
        "meta_rev_at_epoch": 7932,
        "meta_bstar": 0.009141333,
        "meta_mean_motion_dot": 0.00031559,
        "meta_mean_motion_ddot": 0,
        "tle_line1": "1 46435U 97051ABN 25347.84895697  .00031559  00000+0  91413-2 0  9993",
        "tle_line2": "2 46435  86.2839 193.4722 0208315 272.7642 103.0816 14.32399442 79328"
      },
      "geometry": {
        "type": "Point",
        "coordinates": [
          117.59224814574922,
          -86.14281685839947
        ]
      }
    }
  ]
}